GLOBALSTAR M068 [-]     
1 32266U 07048D   23292.88114779 -.00000065  00000+0  21638-3 0  9995
2 32266  51.9908 350.3918 0000596 211.5631 321.2026 12.62768376741243
GLOBALSTAR M079 [+]     
1 37188U 10054A   23292.17512580 -.00000063  00000+0  22640-3 0  9990
2 37188  52.0029 187.6296 0000985  68.1760  96.2379 12.62269144599798
GLOBALSTAR M074 [+]     
1 37189U 10054B   23292.20262407 -.00000060  00000+0  24455-3 0  9998
2 37189  52.0005 186.9620 0000803  76.0815  93.7245 12.62271046600403
GLOBALSTAR M076 [+]     
1 37190U 10054C   23292.03641251 -.00000060  00000+0  24489-3 0  9996
2 37190  52.0019 187.5842 0001350  86.9154 286.9762 12.62262383600108
GLOBALSTAR M077 [+]     
1 37191U 10054D   23292.29581906 -.00000092  00000+0  64305-4 0  9992
2 37191  52.0053 143.4773 0000874  89.6677  82.4734 12.62267780600509
GLOBALSTAR M075 [+]     
1 37192U 10054E   23292.12878997 -.00000056  00000+0  26799-3 0  9998
2 37192  51.9941 229.8980 0000786  57.2724 315.7013 12.62254578599341
GLOBALSTAR M073 [+]     
1 37193U 10054F   23292.84154874 -.00000091  00000+0  69466-4 0  9997
2 37193  52.0038 141.0837 0000929  85.1366 289.1953 12.62268876601312
GLOBALSTAR M083 [+]     
1 37739U 11033A   23292.45940683 -.00000100  00000+0  20991-4 0  9990
2 37739  51.9848  91.8028 0000635  81.9822 296.4707 12.62270518570234
GLOBALSTAR M088 [+]     
1 37740U 11033B   23292.53226957 -.00000082  00000+0  12033-3 0  9998
2 37740  51.9760 357.5873 0000471  69.0413  39.8160 12.62266340565784
GLOBALSTAR M091 [+]     
1 37741U 11033C   23292.79676659 -.00000088  00000+0  86059-4 0  9991
2 37741  52.0007 319.2538 0000522  45.1406 125.4903 12.62267298566868
GLOBALSTAR M085 [+]     
1 37742U 11033D   23292.70426590 -.00000074  00000+0  16407-3 0  9994
2 37742  51.9861 271.1086 0000610  39.8087 130.9710 12.62263976567599
GLOBALSTAR M081 [+]     
1 37743U 11033E   23292.73094494 -.00000082  00000+0  12327-3 0  9998
2 37743  51.9949 273.4402 0000775  50.4139 121.5581 12.62265694567639
GLOBALSTAR M089 [+]     
1 37744U 11033F   23292.81606369 -.00000067  00000+0  20729-3 0  9996
2 37744  51.9924 227.5224 0000820  81.9728 296.7524 12.62268443568367
GLOBALSTAR M084 [+]     
1 38040U 11080A   23292.74919760 -.00000107  00000+0 -19122-4 0  9994
2 38040  51.9992  94.6914 0001023 109.6125 264.3029 12.62267019546361
GLOBALSTAR M080 [+]     
1 38041U 11080B   23292.72260270 -.00000107  00000+0 -19534-4 0  9995
2 38041  52.0043  96.1657 0001246 105.8529 267.3935 12.62265679546342
GLOBALSTAR M082 [+]     
1 38042U 11080C   23292.51234936 -.00000104  00000+0 -96154-6 0  9995
2 38042  52.0091  52.1860 0000200  46.6508  31.6811 12.62271615546883
GLOBALSTAR M092 [+]     
1 38043U 11080D   23291.91737545 -.00000076  00000+0  15481-3 0  9991
2 38043  52.0064 144.3436 0000925 106.5926 267.1653 12.62273338545266
GLOBALSTAR M090 [+]     
1 38044U 11080E   23292.53893212 -.00000097  00000+0  35238-4 0  9991
2 38044  51.9903  46.6946 0000533  83.2035 356.8186 12.62278239547000
GLOBALSTAR M086 [+]     
1 38045U 11080F   23292.48574775 -.00000105  00000+0 -67561-5 0  9992
2 38045  51.9916  47.3615 0001479  74.5195   3.0146 12.62263343546945
GLOBALSTAR M097 [+]     
1 39072U 13005A   23292.49532542 -.00000074  00000+0  16705-3 0  9995
2 39072  52.0058 321.2683 0000524  46.4929 313.5982 12.62271472494195
GLOBALSTAR M093 [+]     
1 39073U 13005B   23292.78552858 -.00000088  00000+0  89135-4 0  9993
2 39073  51.9818 314.6582 0000736  35.9434 324.1482 12.62267643494302
GLOBALSTAR M094 [+]     
1 39074U 13005C   23292.54803096 -.00000073  00000+0  17384-3 0  9991
2 39074  51.9951 229.1549 0000830  55.6547 304.4398 12.62268596495769
GLOBALSTAR M096 [+]     
1 39075U 13005D   23292.24443041 -.00000084  00000+0  11100-3 0  9991
2 39075  52.0064 278.1204 0000681  42.1541 317.9378 12.62264975494648
GLOBALSTAR M078 [+]     
1 39076U 13005E   23292.37619760 -.00000101  00000+0  14789-4 0  9996
2 39076  51.9901   3.0521 0000512 271.0674  89.0134 12.62260289493287
GLOBALSTAR M095 [+]     
1 39077U 13005F   23292.48207268 -.00000082  00000+0  12340-3 0  9993
2 39077  51.9828   0.2303 0000355 353.5570   6.5292 12.62269594493152
GLOBALSTAR M087 [+]     
1 52888U 22064A   23292.82712472 -.00000073  00000+0  10562-3 0  9993
2 52888  51.9770 329.9812 0009904 111.2323 248.9636 13.37555538 65229
